AXCT4e4cd73f-b357-4539-8552-40e77f7405a6
HFFTYFRTYPE:Xiaomi M2101K6G 16 Client:xctrack FlightId:01a0048a-26c5-702e-b22b-87eb443a131c
HFRFWFIRMWAREVERSION:0.9.12.6 LIVE:UNKNOWN
HFPLTPILOTINCHARGE:Martin Schätz
HOSITSite:Všechov
HFCCLCOMPETITIONCLASS:FAI-3 (PG)
HFGTYGLIDERTYPE:GRADIENT Golden 4
HODTM100GPSDATUM:WGS-84
HFALPALTPRESSURE:ISA
HFALG:GEO
HFDTEDATE:150826,00
I023636LAD3737LOD
LXCTDEVICE eyJhcHAiOnsibmFtZSI6IlhDVHJhY2siLCJ2ZXJzaW9uQ29kZSI6OTEyNjAsInZlc
LXCTDEVICE nNpb25OYW1lIjoiMC45LjEyLjYifSwiZGV2aWNlIjp7ImJ1aWxkSWQiOiJCUDRBLj
LXCTDEVICE I1MTIwNS4wMDYiLCJjcHVBQkkiOiJhcm02NC12OGEiLCJkZXZRdWV1ZUJ1aWxkIjo
LXCTDEVICE iZjIzYWFmMTQ4ZTVmYTBjYzBhMDUwM2VhODE2NTk3YzliYzQ4MDgwZCIsImRldmlj
LXCTDEVICE ZVN0cmluZyI6IlhpYW9taSBNMjEwMUs2RyAxNiIsImRpc3BsYXkiOnsiaCI6MjQwM
LXCTDEVICE CwibW0iOjE3LjMyMjgzNCwidyI6MTA4MH0sImZpbmdlcnByaW50IjoiUmVkbWkvc3
LXCTDEVICE dlZXRfZ2xvYmFsL3N3ZWV0OjEzL1RLUTEuMjIxMDEzLjAwMi9WMTQuMC45LjAuVEt
LXCTDEVICE GTUlYTTp1c2VyL3JlbGVhc2Uta2V5cyIsImhhcmR3YXJlIjoicWNvbSIsIm1hbnVm
LXCTDEVICE YWN0dXJlciI6IlhpYW9taSIsIm1lbW9yeSI6eyJhZHZlcnRpc2VkTWVtIjo4MDAwM
LXCTDEVICE DAwMDAwLCJhdmFpbE1lbSI6NDc5MDU3OTIwMCwiZm9yZWdyb3VuZEFwcFRocmVzaG
LXCTDEVICE 9sZCI6NzU0OTc0NzIsImxvd01lbW9yeSI6ZmFsc2UsInRocmVzaG9sZCI6MjI2NDk
LXCTDEVICE yNDE2LCJ0b3RhbE1lbSI6Nzg2OTI4MDI1Nn0sIm1vZGVsIjoiTTIxMDFLNkciLCJw
LXCTDEVICE cm9kdWN0IjoiY3VzdG9tX3N3ZWV0In0sImRldmljZUlkIjoiNGU0Y2Q3M2YtYjM1N
LXCTDEVICE y00NTM5LTg1NTItNDBlNzdmNzQwNWE2Iiwib3MiOnsic2RrIjozNiwidGltZXpvbm
LXCTDEVICE UiOiJFdXJvcGUvUHJhZ3VlIiwidHlwZSI6IkFuZHJvaWQiLCJ2ZXJzaW9uIjoiMTY
LXCTDEVICE ifX0=
B0832564926607N01436722EA004550050209
B0832574926607N01436722EA004550050209
B0832584926607N01436722EA004550050219
B0832594926607N01436722EA004550050219
B0833004926607N01436722EA004550050218
B0833014926607N01436722EA004550050128
B0833024926607N01436722EA004550050127
B0833034926607N01436722EA004550050127
B0833044926607N01436722EA004550050127
B0833054926607N01436722EA004550050127
B0833064926607N01436722EA004550050127
B0833074926607N01436722EA004550050127
B0833084926607N01436722EA004550050127
B0833094926607N01436722EA004550050127
B0833104926607N01436722EA004550050127
B0833114926607N01436722EA004550050127
B0833124926607N01436722EA004550050127
B0833134926606N01436722EA004550050189
B0833144926606N01436723EA004550050101
B0833154926604N01436723EA004550050195
B0833164926603N01436724EA004550050102
B0833174926600N01436725EA004550050248
B0833184926595N01436728EA004540050275
B0833194926590N01436731EA004540050333
B0833204926585N01436733EA004550050354
B0833214926580N01436735EA004560050582
B0833224926577N01436738EA004570050921
B0833234926573N01436741EA004580051173
B0833244926569N01436743EA004590051269
B0833254926565N01436747EA004600051203
B0833264926560N01436752EA004610051281
B0833274926557N01436757EA004620051457
B0833284926554N01436762EA004640051615
B0833294926550N01436766EA004660052083
B0833304926547N01436769EA004670052235
B0833314926543N01436773EA004690052464
B0833324926539N01436777EA004710052485
B0833334926535N01436782EA004720052575
B0833344926532N01436787EA004740052606
B0833354926528N01436792EA004760052874
B0833364926525N01436797EA004780053064
B0833374926522N01436803EA004800053271
B0833384926519N01436808EA004820053457
B0833394926515N01436813EA004840053667
B0833404926511N01436818EA004850053890
B0833414926508N01436822EA004870053911
B0833424926504N01436826EA004890054009
B0833434926499N01436832EA004910054160
B0833444926495N01436837EA004920054123
B0833454926490N01436842EA004940054272
B0833464926486N01436847EA004960054581
B0833474926483N01436852EA004980054758
B0833484926480N01436859EA004990054823
B0833494926476N01436866EA005010054934
B0833504926471N01436873EA005030055099
B0833514926467N01436881EA005040055393
B0833524926464N01436889EA005070055654
B0833534926461N01436897EA005090056062
B0833544926458N01436903EA005120056561
B0833554926455N01436908EA005140056809
B0833564926451N01436915EA005170057016
B0833574926447N01436924EA005190057130
B0833584926444N01436932EA005220057301
B0833594926440N01436939EA005240057793
B0834004926437N01436945EA005270058187
B0834014926434N01436952EA005300058560
B0834024926431N01436958EA005330058718
B0834034926427N01436965EA005360058939
B0834044926423N01436972EA005400059245
B0834054926419N01436978EA005430059695
B0834064926416N01436984EA005460060078
B0834074926413N01436991EA005490060227
B0834084926409N01436998EA005530060505
B0834094926404N01437004EA005560061086
B0834104926401N01437010EA005600061556
B0834114926398N01437017EA005640062086
B0834124926396N01437024EA005680062507
B0834134926392N01437031EA005730063044
B0834144926387N01437037EA005770063484
B0834154926382N01437043EA005810063896
B0834164926377N01437050EA005860064354
B0834174926372N01437057EA005910064722
B0834184926366N01437063EA005960065480
B0834194926361N01437068EA006010065985
B0834204926356N01437074EA006060066582
B0834214926351N01437080EA006110067172
B0834224926346N01437085EA006170067884
B0834234926341N01437090EA006230068493
B0834244926336N01437095EA006290069261
B0834254926331N01437100EA006360069857
B0834264926326N01437106EA006420070591
B0834274926322N01437111EA006480071228
B0834284926317N01437117EA006550071754
B0834294926312N01437123EA006610072155
B0834304926307N01437129EA006670072564
B0834314926303N01437135EA006730073116
B0834324926298N01437141EA006790073646
B0834334926293N01437148EA006850074252
B0834344926288N01437155EA006900074751
B0834354926283N01437162EA006960075181
B0834364926278N01437168EA007010075557
B0834374926272N01437175EA007060075873
B0834384926267N01437181EA007090076068
B0834394926262N01437189EA007110076484
B0834404926257N01437197EA007120076781
B0834414926252N01437203EA007140077126
B0834424926246N01437210EA007160077486
B0834434926241N01437218EA007190077862
B0834444926236N01437225EA007210078271
B0834454926231N01437232EA007240078722
B0834464926225N01437239EA007270078992
B0834474926220N01437245EA007290079176
B0834484926215N01437252EA007320079359
B0834494926210N01437259EA007350079408
B0834504926204N01437265EA007370079688
B0834514926198N01437272EA007400080098
B0834524926193N01437280EA007430080321
B0834534926187N01437286EA007450080519
B0834544926181N01437293EA007480080822
B0834554926176N01437298EA007510081118
B0834564926170N01437303EA007530081355
B0834574926164N01437308EA007560081479
B0834584926158N01437313EA007580081568
B0834594926152N01437319EA007600081594
B0835004926147N01437324EA007620081698
B0835014926143N01437331EA007630081702
B0835024926137N01437338EA007640081970
B0835034926132N01437345EA007650082134
B0835044926126N01437351EA007670082392
B0835054926122N01437357EA007680082500
B0835064926117N01437363EA007700082813
B0835074926112N01437370EA007720083038
B0835084926107N01437377EA007740083372
B0835094926103N01437384EA007760083407
B0835104926098N01437392EA007780083728
B0835114926093N01437401EA007800083970
B0835124926089N01437408EA007820084324
B0835134926084N01437416EA007850084691
B0835144926080N01437423EA007870075060
B0835154926076N01437430EA007900079413
B0835164926071N01437437EA007920081514
B0835174926065N01437444EA007950082899
B0835184926061N01437451EA007970083919
B0835194926056N01437459EA008000084620
B0835204926051N01437466EA008020085006
B0835214926045N01437474EA008050085495
B0835224926040N01437481EA008070085796
B0835234926036N01437489EA008090086012
B0835244926031N01437496EA008110086245
B0835254926027N01437503EA008130086530
B0835264926023N01437508EA008140086685
B0835274926021N01437514EA008140086713
B0835284926018N01437520EA008130086712
B0835294926014N01437527EA008120086570
B0835304926010N01437534EA008100086252
B0835314926006N01437541EA008080086021
B0835324926002N01437547EA008060085819
B0835334925998N01437554EA008050085850
B0835344925994N01437559EA008030085764
B0835354925990N01437565EA008010085540
B0835364925985N01437570EA007990085369
B0835374925980N01437577EA007970085173
B0835384925976N01437583EA007950085148
B0835394925972N01437589EA007940085149
B0835404925968N01437595EA007920085187
B0835414925965N01437602EA007910085023
B0835424925962N01437609EA007900084928
B0835434925960N01437618EA007880084626
B0835444925959N01437627EA007860084528
B0835454925959N01437637EA007850084340
B0835464925960N01437645EA007830084267
B0835474925962N01437653EA007810084077
B0835484925965N01437661EA007800083933
B0835494925967N01437668EA007780083793
B0835504925970N01437675EA007770083691
B0835514925974N01437681EA007750083634
B0835524925977N01437687EA007740083464
B0835534925980N01437693EA007720083362
B0835544925983N01437699EA007710083280
B0835554925987N01437703EA007700083109
B0835564925990N01437707EA007680082989
B0835574925995N01437711EA007670082724
B0835584925999N01437714EA007650082597
B0835594926004N01437717EA007630082299
B0836004926010N01437720EA007620082131
B0836014926015N01437721EA007600082092
B0836024926021N01437721EA007580081944
B0836034926026N01437721EA007570081871
B0836044926031N01437719EA007560081858
B0836054926036N01437717EA007550081713
B0836064926041N01437713EA007550081708
B0836074926045N01437708EA007540081458
B0836084926049N01437702EA007530081298
B0836094926054N01437696EA007520081038
B0836104926058N01437691EA007510080962
B0836114926062N01437685EA007500080953
B0836124926066N01437679EA007490080830
B0836134926069N01437672EA007470080695
B0836144926073N01437665EA007460080557
B0836154926077N01437659EA007450080436
B0836164926081N01437653EA007430080216
B0836174926084N01437647EA007420079985
B0836184926088N01437641EA007400079636
B0836194926092N01437635EA007380079426
B0836204926096N01437629EA007360079125
B0836214926100N01437624EA007330079461
B0836224926104N01437618EA007310078990
B0836234926109N01437612EA007280078651
B0836244926114N01437606EA007260078213
B0836254926118N01437600EA007230078076
B0836264926122N01437595EA007200077885
B0836274926126N01437591EA007180077691
B0836284926130N01437586EA007160077492
B0836294926135N01437581EA007130077314
B0836304926139N01437575EA007110077029
B0836314926143N01437570EA007080076742
B0836324926147N01437564EA007060076593
B0836334926152N01437559EA007040076356
B0836344926156N01437555EA007020076282
B0836354926161N01437551EA007000076201
B0836364926165N01437547EA006980076011
B0836374926169N01437542EA006960075957
B0836384926173N01437537EA006950077559
B0836394926177N01437532EA006930076669
B0836404926182N01437528EA006920076107
B0836414926186N01437524EA006900075732
B0836424926190N01437519EA006880075356
B0836434926194N01437514EA006870075055
B0836444926198N01437508EA006850074769
B0836454926202N01437502EA006830074549
B0836464926206N01437497EA006810074320
B0836474926209N01437490EA006790074139
B0836484926212N01437484EA006780073967
B0836494926216N01437478EA006760073714
B0836504926219N01437472EA006740073573
B0836514926223N01437466EA006720073310
B0836524926225N01437459EA006700073294
B0836534926228N01437453EA006680073085
B0836544926231N01437448EA006670072993
B0836554926235N01437443EA006650072751
B0836564926239N01437437EA006630072404
B0836574926242N01437431EA006610072261
B0836584926246N01437424EA006590072008
B0836594926249N01437418EA006570071876
B0837004926253N01437413EA006550071774
B0837014926257N01437408EA006530071583
B0837024926261N01437402EA006510071397
B0837034926265N01437396EA006490071197
B0837044926270N01437390EA006470070907
B0837054926274N01437385EA006450070722
B0837064926278N01437379EA006430070547
B0837074926282N01437374EA006410070233
B0837084926286N01437368EA006390070017
B0837094926289N01437363EA006370069780
B0837104926293N01437356EA006340071469
B0837114926297N01437350EA006320070438
B0837124926301N01437344EA006300069839
B0837134926305N01437339EA006280069443
B0837144926309N01437333EA006260069118
B0837154926312N01437327EA006250068869
B0837164926315N01437321EA006240068688
B0837174926318N01437315EA006230068532
B0837184926321N01437308EA006230068319
B0837194926324N01437302EA006220068040
B0837204926328N01437294EA006210067828
B0837214926332N01437288EA006200067642
B0837224926336N01437281EA006190067524
B0837234926338N01437275EA006190067571
B0837244926340N01437268EA006180067436
B0837254926341N01437260EA006170067267
B0837264926343N01437252EA006160066983
B0837274926347N01437245EA006140066731
B0837284926352N01437241EA006130066520
B0837294926356N01437240EA006110066396
B0837304926360N01437244EA006090066180
B0837314926363N01437250EA006070065844
B0837324926363N01437257EA006050065596
B0837334926361N01437263EA006030065367
B0837344926357N01437267EA006010065125
B0837354926351N01437267EA005990064986
B0837364926346N01437264EA005970067382
B0837374926343N01437257EA005950066143
B0837384926342N01437248EA005930065440
B0837394926343N01437238EA005910064954
B0837404926346N01437230EA005890064532
B0837414926350N01437224EA005870064231
B0837424926354N01437219EA005850064060
B0837434926358N01437213EA005830064874
B0837444926362N01437207EA005810064183
B0837454926367N01437201EA005790063613
B0837464926371N01437195EA005770063253
B0837474926376N01437189EA005750063011
B0837484926380N01437182EA005730062866
B0837494926384N01437175EA005710062769
B0837504926388N01437169EA005690063274
B0837514926392N01437162EA005670062888
B0837524926397N01437156EA005660062513
B0837534926401N01437149EA005650062344
B0837544926405N01437142EA005640062242
B0837554926409N01437134EA005640062228
B0837564926412N01437127EA005650062378
B0837574926416N01437121EA005650062401
B0837584926419N01437114EA005660062462
B0837594926424N01437109EA005660062221
B0838004926429N01437106EA005660062176
B0838014926435N01437106EA005650061913
B0838024926438N01437112EA005650061810
B0838034926439N01437117EA005630061579
B0838044926439N01437124EA005620061328
B0838054926437N01437130EA005610061105
B0838064926432N01437132EA005600061099
B0838074926428N01437131EA005580060915
B0838084926423N01437126EA005570060799
B0838094926420N01437120EA005560060784
B0838104926419N01437112EA005550060764
B0838114926420N01437102EA005540060795
B0838124926424N01437093EA005530060547
B0838134926429N01437087EA005520060460
B0838144926434N01437082EA005510060392
B0838154926439N01437076EA005490060537
B0838164926442N01437070EA005480060475
B0838174926446N01437063EA005470060235
B0838184926450N01437057EA005460060072
B0838194926456N01437052EA005440059807
B0838204926461N01437049EA005430059742
B0838214926466N01437045EA005420059668
B0838224926470N01437041EA005410059698
B0838234926474N01437036EA005390059593
B0838244926479N01437030EA005380059244
B0838254926484N01437025EA005360058951
B0838264926489N01437020EA005340058773
B0838274926494N01437014EA005320058537
B0838284926498N01437008EA005310058404
B0838294926501N01437002EA005290058350
B0838304926505N01436995EA005280058158
B0838314926510N01436989EA005260058014
B0838324926514N01436983EA005250058094
B0838334926519N01436978EA005240058244
B0838344926522N01436973EA005250058384
B0838354926525N01436967EA005260058462
B0838364926528N01436959EA005260058407
B0838374926530N01436952EA005270058381
B0838384926534N01436946EA005270058366
B0838394926539N01436943EA005280058354
B0838404926544N01436942EA005280058265
B0838414926549N01436944EA005280058165
B0838424926554N01436949EA005270058050
B0838434926557N01436956EA005270057952
B0838444926558N01436964EA005260057741
B0838454926556N01436971EA005260057686
B0838464926553N01436977EA005250057371
B0838474926549N01436980EA005230057210
B0838484926543N01436980EA005220056963
B0838494926538N01436978EA005220056704
B0838504926534N01436970EA005210056610
B0838514926532N01436960EA005190056946
B0838524926533N01436950EA005190056685
B0838534926537N01436942EA005190056361
B0838544926542N01436937EA005180056211
B0838554926545N01436933EA005180056394
B0838564926549N01436929EA005180056426
B0838574926552N01436925EA005180056333
B0838584926555N01436920EA005180056384
B0838594926560N01436915EA005170056149
B0839004926565N01436911EA005170055824
B0839014926569N01436906EA005160055777
B0839024926573N01436901EA005150055777
B0839034926577N01436896EA005140055814
B0839044926580N01436890EA005130055886
B0839054926585N01436885EA005120055821
B0839064926589N01436880EA005110055772
B0839074926594N01436875EA005100055636
B0839084926598N01436870EA005090055662
B0839094926602N01436864EA005070055558
B0839104926606N01436859EA005060055436
B0839114926610N01436854EA005040055332
B0839124926614N01436849EA005030055280
B0839134926619N01436844EA005010055150
B0839144926624N01436839EA005000055114
B0839154926628N01436835EA005000055122
B0839164926632N01436831EA004990055000
B0839174926636N01436826EA004990054903
B0839184926639N01436821EA004980054892
B0839194926643N01436816EA004970054695
B0839204926648N01436812EA004970054510
B0839214926652N01436806EA004960054415
B0839224926656N01436800EA004950054305
B0839234926659N01436794EA004940054283
B0839244926663N01436788EA004930054185
B0839254926667N01436783EA004920054072
B0839264926671N01436777EA004910053894
B0839274926676N01436771EA004900053712
B0839284926680N01436765EA004890053642
B0839294926685N01436759EA004880053426
B0839304926689N01436754EA004870053384
B0839314926694N01436748EA004850053327
B0839324926698N01436743EA004840053270
B0839334926703N01436737EA004830053161
B0839344926708N01436731EA004820052973
B0839354926713N01436725EA004810052929
B0839364926717N01436720EA004810052915
B0839374926720N01436715EA004800052940
B0839384926723N01436708EA004800052947
B0839394926724N01436700EA004800052852
B0839404926725N01436691EA004790052703
B0839414926724N01436683EA004790052521
B0839424926721N01436676EA004780052495
B0839434926718N01436671EA004770052380
B0839444926715N01436666EA004760052244
B0839454926712N01436661EA004760052124
B0839464926709N01436656EA004750052014
B0839474926705N01436652EA004740053444
B0839484926701N01436650EA004730052705
B0839494926696N01436650EA004720052331
B0839504926691N01436650EA004710052082
B0839514926687N01436650EA004700051941
B0839524926682N01436649EA004690051791
B0839534926678N01436648EA004670051657
B0839544926673N01436649EA004660051379
B0839554926668N01436652EA004650051287
B0839564926664N01436655EA004640051019
B0839574926659N01436659EA004620050966
B0839584926655N01436662EA004610050932
B0839594926650N01436664EA004600050896
B0840004926646N01436668EA004600050891
B0840014926643N01436673EA004590050770
B0840024926640N01436678EA004580050573
B0840034926637N01436682EA004570050454
B0840044926634N01436684EA004560050347
B0840054926632N01436685EA004550050283
B0840064926632N01436685EA004550050246
B0840074926631N01436686EA004550050271
B0840084926631N01436686EA004550050136
B0840094926631N01436687EA004550050130
B0840104926632N01436687EA004560050203
B0840114926632N01436687EA004560050187
B0840124926633N01436687EA004560050109
B0840134926633N01436687EA004560050109
B0840144926633N01436687EA004560050109
B0840154926633N01436687EA004560050108
B0840164926633N01436687EA004560050108
B0840174926633N01436687EA004560050117
B0840184926633N01436687EA004560050117
B0840194926633N01436687EA004560050116
B0840204926633N01436687EA004560050106
B0840214926633N01436687EA004560050115
B0840224926633N01436687EA004560050125
B0840234926633N01436687EA004560050114
B0840244926633N01436687EA004560050115
B0840254926633N01436687EA004560050116
B0840264926633N01436687EA004560050107
LXCTFAICIVLCOMPLIANT false
G8D1A18D6FBB7F428C5F05A2F73E954B3590DA2DF4D6179E960CAA20F728DC215
G45FCC9C8B5C46F61DAEBCD63B5E1D275B739AFF9C1A773B731193EE8F9ACA0C2
G63F6276C29A8BABCA5B66A6A985701A6823B6EE6D12FC94AF79A291995A554A6
G5F68929086B28DEAC530EF2722F1BF5D06CD19811FECC5D80D6EB41B95933980
G39DE20921571D81F205F473C56363CC6AF9E11C3CAF0C433CB20104C8A17F010
GDE6B75BE6E04122B7696FE98BD7F4AB5FEFB5371E94CE05BDACDBB2C1791A101
GE76A1A21A8FBA43570AF2E519A3DBEB203C2163A00A14E619ED34B1B3CBFCC33
G25AB5AB6DC28C82198D9685CDB5D4C86940173BE3A7C5AC0E47E7767DB2EB625
